{
  "type": "FeatureCollection",
  "features": [
    {
      "type": "Feature",
      "properties": {
        "norad_id": 35915,
        "name": "IRIDIUM 33 DEB",
        "group": "iridium-33-debris",
        "lat": 73.40702380899785,
        "lon": -5.620308592182075,
        "alt_km": 621.7797203049431,
        "timestamp": "2025-12-14T20:40:32.158100+00:00",
        "meta_object_name": "IRIDIUM 33 DEB",
        "meta_object_id": "1997-051TY",
        "meta_epoch": "2025-12-14T05:44:47.851008",
        "meta_mean_motion": 14.80790316,
        "meta_eccentricity": 0.00110484,
        "meta_inclination": 86.3438,
        "meta_ra_of_asc_node": 342.2726,
        "meta_arg_of_pericenter": 180.596,
        "meta_mean_anomaly": 179.525,
        "meta_ephemeris_type": 0,
        "meta_classification_type": "U",
        "meta_norad_cat_id": 35915,
        "meta_element_set_no": 999,
        "meta_rev_at_epoch": 8108,
        "meta_bstar": 0.0018707255,
        "meta_mean_motion_dot": 0.0001447,
        "meta_mean_motion_ddot": 0,
        "tle_line1": "1 35915U 97051TY  25348.23944272  .00014470  00000+0  18707-2 0  9990",
        "tle_line2": "2 35915  86.3438 342.2726 0011048 180.5960 179.5250 14.80790316 81081"
      },
      "geometry": {
        "type": "Point",
        "coordinates": [
          -5.620308592182075,
          73.40702380899785
        ]
      }
    },
    {
      "type": "Feature",
      "properties": {
        "norad_id": 35918,
        "name": "IRIDIUM 33 DEB",
        "group": "iridium-33-debris",
        "lat": 3.4698782557509444,
        "lon": 75.12352146819987,
        "alt_km": 742.374093243312,
        "timestamp": "2025-12-14T20:40:32.158111+00:00",
        "meta_object_name": "IRIDIUM 33 DEB",
        "meta_object_id": "1997-051UB",
        "meta_epoch": "2025-12-13T00:32:30.278688",
        "meta_mean_motion": 14.51250424,
        "meta_eccentricity": 0.00275912,
        "meta_inclination": 86.401,
        "meta_ra_of_asc_node": 75.694,
        "meta_arg_of_pericenter": 168.7296,
        "meta_mean_anomaly": 313.6735,
        "meta_ephemeris_type": 0,
        "meta_classification_type": "U",
        "meta_norad_cat_id": 35918,
        "meta_element_set_no": 999,
        "meta_rev_at_epoch": 85211,
        "meta_bstar": 0.0017263949,
        "meta_mean_motion_dot": 6.917e-05,
        "meta_mean_motion_ddot": 0,
        "tle_line1": "1 35918U 97051UB  25347.02257267  .00006917  00000+0  17264-2 0  9994",
        "tle_line2": "2 35918  86.4010  75.6940 0027591 168.7296 313.6735 14.51250424852114"
      },
      "geometry": {
        "type": "Point",
        "coordinates": [
          75.12352146819987,
          3.4698782557509444
        ]
      }
    },
    {
      "type": "Feature",
      "properties": {
        "norad_id": 35929,
        "name": "IRIDIUM 33 DEB",
        "group": "iridium-33-debris",
        "lat": 34.105811204295854,
        "lon": 129.134920524837,
        "alt_km": 562.2896729711592,
        "timestamp": "2025-12-14T20:40:32.158122+00:00",
        "meta_object_name": "IRIDIUM 33 DEB",
        "meta_object_id": "1997-051UN",
        "meta_epoch": "2025-12-13T15:15:35.730144",
        "meta_mean_motion": 15.02499578,
        "meta_eccentricity": 0.00180046,
        "meta_inclination": 86.3326,
        "meta_ra_of_asc_node": 312.2055,
        "meta_arg_of_pericenter": 34.4398,
        "meta_mean_anomaly": 325.7999,
        "meta_ephemeris_type": 0,
        "meta_classification_type": "U",
        "meta_norad_cat_id": 35929,
        "meta_element_set_no": 999,
        "meta_rev_at_epoch": 87793,
        "meta_bstar": 0.0026663267,
        "meta_mean_motion_dot": 0.00035671,
        "meta_mean_motion_ddot": 0,
        "tle_line1": "1 35929U 97051UN  25347.63583021  .00035671  00000+0  26663-2 0  9995",
        "tle_line2": "2 35929  86.3326 312.2055 0018004  34.4398 325.7999 15.02499578877938"
      },
      "geometry": {
        "type": "Point",
        "coordinates": [
          129.134920524837,
          34.105811204295854
        ]
      }
    },
    {
      "type": "Feature",
      "properties": {
        "norad_id": 36011,
        "name": "IRIDIUM 33 DEB",
        "group": "iridium-33-debris",
        "lat": -21.722434165499866,
        "lon": 33.05256326757141,
        "alt_km": 767.4194112895166,
        "timestamp": "2025-12-14T20:40:32.158132+00:00",
        "meta_object_name": "IRIDIUM 33 DEB",
        "meta_object_id": "1997-051US",
        "meta_epoch": "2025-12-11T21:42:29.079072",
        "meta_mean_motion": 14.41326157,
        "meta_eccentricity": 0.0017563,
        "meta_inclination": 86.3411,
        "meta_ra_of_asc_node": 35.7829,
        "meta_arg_of_pericenter": 218.6873,
        "meta_mean_anomaly": 266.0791,
        "meta_ephemeris_type": 0,
        "meta_classification_type": "U",
        "meta_norad_cat_id": 36011,
        "meta_element_set_no": 999,
        "meta_rev_at_epoch": 64528,
        "meta_bstar": 0.00076231,
        "meta_mean_motion_dot": 2.489e-05,
        "meta_mean_motion_ddot": 0,
        "tle_line1": "1 36011U 97051US  25345.90450323  .00002489  00000+0  76231-3 0  9992",
        "tle_line2": "2 36011  86.3411  35.7829 0017563 218.6873 266.0791 14.41326157645287"
      },
      "geometry": {
        "type": "Point",
        "coordinates": [
          33.05256326757141,
          -21.722434165499866
        ]
      }
    },
    {
      "type": "Feature",
      "properties": {
        "norad_id": 36012,
        "name": "IRIDIUM 33 DEB",
        "group": "iridium-33-debris",
        "lat": 85.58130208165542,
        "lon": 72.99478042124355,
        "alt_km": 967.0803494386055,
        "timestamp": "2025-12-14T20:40:32.158142+00:00",
        "meta_object_name": "IRIDIUM 33 DEB",
        "meta_object_id": "1997-051UT",
        "meta_epoch": "2025-12-14T03:18:12.832128",
        "meta_mean_motion": 14.19077552,
        "meta_eccentricity": 0.02115694,
        "meta_inclination": 86.4394,
        "meta_ra_of_asc_node": 306.9699,
        "meta_arg_of_pericenter": 258.7028,
        "meta_mean_anomaly": 99.0321,
        "meta_ephemeris_type": 0,
        "meta_classification_type": "U",
        "meta_norad_cat_id": 36012,
        "meta_element_set_no": 999,
        "meta_rev_at_epoch": 65504,
        "meta_bstar": 0.0061987982,
        "meta_mean_motion_dot": 0.00016227,
        "meta_mean_motion_ddot": 0,
        "tle_line1": "1 36012U 97051UT  25348.13764852  .00016227  00000+0  61988-2 0  9993",
        "tle_line2": "2 36012  86.4394 306.9699 0211569 258.7028  99.0321 14.19077552655041"
      },
      "geometry": {
        "type": "Point",
        "coordinates": [
          72.99478042124355,
          85.58130208165542
        ]
      }
    },
    {
      "type": "Feature",
      "properties": {
        "norad_id": 36028,
        "name": "IRIDIUM 33 DEB",
        "group": "iridium-33-debris",
        "lat": 37.60228857121154,
        "lon": -51.4595850234193,
        "alt_km": 563.5116115437122,
        "timestamp": "2025-12-14T20:40:32.158152+00:00",
        "meta_object_name": "IRIDIUM 33 DEB",
        "meta_object_id": "1997-051VK",
        "meta_epoch": "2025-12-13T04:21:30.824928",
        "meta_mean_motion": 14.95340527,
        "meta_eccentricity": 0.00215137,
        "meta_inclination": 86.3216,
        "meta_ra_of_asc_node": 306.4905,
        "meta_arg_of_pericenter": 52.2095,
        "meta_mean_anomaly": 308.1078,
        "meta_ephemeris_type": 0,
        "meta_classification_type": "U",
        "meta_norad_cat_id": 36028,
        "meta_element_set_no": 999,
        "meta_rev_at_epoch": 87131,
        "meta_bstar": 0.0034254157,
        "meta_mean_motion_dot": 0.00038122,
        "meta_mean_motion_ddot": 0,
        "tle_line1": "1 36028U 97051VK  25347.18160677  .00038122  00000+0  34254-2 0  9993",
        "tle_line2": "2 36028  86.3216 306.4905 0021513  52.2095 308.1078 14.95340527871316"
      },
      "geometry": {
        "type": "Point",
        "coordinates": [
          -51.4595850234193,
          37.60228857121154
        ]
      }
    },
    {
      "type": "Feature",
      "properties": {
        "norad_id": 36080,
        "name": "IRIDIUM 33 DEB",
        "group": "iridium-33-debris",
        "lat": -64.12615282479028,
        "lon": -165.31196457948656,
        "alt_km": 745.0204530854817,
        "timestamp": "2025-12-14T20:40:32.158184+00:00",
        "meta_object_name": "IRIDIUM 33 DEB",
        "meta_object_id": "1997-051VM",
        "meta_epoch": "2025-12-12T07:47:12.921504",
        "meta_mean_motion": 14.46603626,
        "meta_eccentricity": 0.0018143,
        "meta_inclination": 86.3202,
        "meta_ra_of_asc_node": 8.1679,
        "meta_arg_of_pericenter": 158.128,
        "meta_mean_anomaly": 202.0701,
        "meta_ephemeris_type": 0,
        "meta_classification_type": "U",
        "meta_norad_cat_id": 36080,
        "meta_element_set_no": 999,
        "meta_rev_at_epoch": 47408,
        "meta_bstar": 0.00097514146,
        "meta_mean_motion_dot": 3.542e-05,
        "meta_mean_motion_ddot": 0,
        "tle_line1": "1 36080U 97051VM  25346.32445511  .00003542  00000+0  97514-3 0  9996",
        "tle_line2": "2 36080  86.3202   8.1679 0018143 158.1280 202.0701 14.46603626474086"
      },
      "geometry": {
        "type": "Point",
        "coordinates": [
          -165.31196457948656,
          -64.12615282479028
        ]
      }
    }
  ]
}